satname,norad_id,inclination_deg,eccentricity,mean_motion_rev_per_day,perigee_km,apogee_km,l1,l2
STARLINK-1008,44714,53.1555,0.0001507,15.31032311,471.69863886980875,473.76349050450517,1 44714U 19074B   26051.73390087  .00000829  00000+0  39218-4 0  9997,2 44714  53.1555 257.6151 0001507 122.9558 237.1588 15.31032311346274
STARLINK-1012,44718,53.1604,0.0001104,15.30202302,474.45158676123356,475.96480538052583,1 44718U 19074F   26051.77031922  .00001672  00000+0  68549-4 0  9991,2 44718  53.1604 257.3940 0001104  96.5501 263.5626 15.30202302346277
STARLINK-1017,44723,53.0508,0.0003494,15.22508019,495.87595832313946,500.68119752899474,1 44723U 19074L   26051.74652793  .00025901  00000+0  11135-2 0  9997,2 44723  53.0508 249.5226 0003494 130.3885 229.7417 15.22508019346380
STARLINK-1019,44724,53.0438,0.0006501,15.76842735,335.0255062078986,343.75963815765135,1 44724U 19074M   26051.91668981  .00102520  00000+0  61897-3 0  9997,2 44724  53.0438 220.7615 0006501 145.9132 288.6403 15.76842735  5808
STARLINK-1020,44725,53.1115,6.43e-05,15.20129569,505.00682073947974,505.8920499550659,1 44725U 19074N   26051.91668981  .00066135  00000+0  30084-2 0  9992,2 44725  53.1115 281.4730 0000643 104.4239 237.2638 15.20129569  5737
STARLINK-1031,44736,53.0415,0.0002517,15.83803857,318.0090596932141,321.38074827367836,1 44736U 19074Z   26051.91668981  .00173530  00000+0  75440-3 0  9998,2 44736  53.0415 205.1030 0002517 230.3768 298.8664 15.83803857  5915
STARLINK-1036,44741,53.0522,0.0004969,15.52252494,406.77796797253814,413.5241686548279,1 44741U 19074AE  26051.76220640  .00120470  00000+0  19276-2 0  9992,2 44741  53.0522 270.2545 0004969 158.1804 201.9418 15.52252494346095
STARLINK-1039,44744,53.0444,0.0006559,15.20010031,501.2951463742929,510.3255084784105,1 44744U 19074AH  26051.06820081  .00040821  00000+0  18746-2 0  9995,2 44744  53.0444 295.9877 0006559 119.6234 240.5415 15.20010031345672
STARLINK-1042,44747,53.0441,0.0002536,15.48872084,418.3004147483407,421.748442224869,1 44747U 19074AL  26051.55901931  .00023253  00000+0  43138-3 0  9990,2 44747  53.0441 176.9237 0002536 111.9092 248.2185 15.48872084347415
STARLINK-1043,44748,53.0522,0.0002951,15.52472073,407.50793572319617,411.5140055554666,1 44748U 19074AM  26051.79730122  .00023524  00000+0  38420-3 0  9998,2 44748  53.0522 275.9233 0002951  85.5161 274.6185 15.52472073346024
STARLINK-1046,44751,53.0549,0.0007552,15.4205416,434.89852351215995,445.19670955697256,1 44751U 19074AQ  26050.99042197  .00013985  00000+0  33117-3 0  9999,2 44751  53.0549 294.8607 0007552 116.1733 244.0050 15.42054160345685
STARLINK-1047,44752,53.0697,0.0004122,15.32139368,466.60800772693256,472.25314243582943,1 44752U 19074AR  26051.73419280  .00009021  00000+0  29801-3 0  9995,2 44752  53.0697 225.1868 0004122 147.7510 212.3744 15.32139368346748
STARLINK-1048,44753,53.0535,0.0004884,15.50512562,411.9106285861253,418.54638801463443,1 44753U 19074AS  26051.83960332  .00023607  00000+0  41323-3 0  9995,2 44753  53.0535 249.9003 0004884 134.0112 226.1299 15.50512562346386
STARLINK-1053,44758,53.0305,0.000413,15.83836766,316.83595892406083,322.36829144146213,1 44758U 19074AX  26051.91668981  .00157946  00000+0  68688-3 0  9991,2 44758  53.0305 168.5906 0004130 347.3905 279.7909 15.83836766  5988
STARLINK-1063,44768,53.1563,0.0003441,15.29015544,476.39446818476335,481.11338051890107,1 44768U 19074BH  26051.83577913 -.00574712  00000+0 -21455-1 0  9992,2 44768  53.1563 297.6832 0003441 153.6138 206.5038 15.29015544345732
STARLINK-1067,44771,53.053,0.0001313,15.53720151,404.98480519513396,406.76628688972505,1 44771U 19074BL  26051.79668078  .00089390  00000+0  13642-2 0  9995,2 44771  53.0530 285.9048 0001313 144.5055 215.6042 15.53720151345887
STARLINK-1068,44772,53.0506,0.0004694,15.59599313,385.63945348589914,391.9922688319557,1 44772U 19074BM  26051.78910637  .00123828  00000+0  15098-2 0  9998,2 44772  53.0506 262.3895 0004694 155.6811 204.4423 15.59599313346204
STARLINK-1112,44925,53.0405,0.000235,15.95876862,284.30617758487097,287.43826191815424,1 44925U 20001M   26051.91668981  .00300914  47035-4  72833-3 0  9995,2 44925  53.0405 327.9307 0002350 128.3916 332.1806 15.95876862  5908
STARLINK-1114,44927,53.0513,0.0008376,15.47176628,419.29168154521903,430.68827986329507,1 44927U 20001P   26051.70591333  .00077562  00000+0  14941-2 0  9991,2 44927  53.0513  50.6906 0008376  50.8852 309.2898 15.47176628337462
STARLINK-1123,44930,53.0538,0.0001362,15.06391388,546.2947165351243,548.1811886722144,1 44930U 20001S   26051.34049292  .00001527  00000+0  12142-3 0  9997,2 44930  53.0538  64.5029 0001362  94.4636 265.6509 15.06391388337231
STARLINK-1094,44941,53.161,0.0001298,15.30184717,474.37113106061497,476.1502731040764,1 44941U 20001AD  26051.37506760  .00001423  00000+0  60192-4 0  9994,2 44941  53.1610  39.9851 0001298  64.2063 295.9072 15.30184717337583
STARLINK-1122,44949,53.1609,0.0001726,15.30186718,474.071831951941,476.4376227762268,1 44949U 20001AM  26051.27078376  .00000632  00000+0  33497-4 0  9997,2 44949  53.1609  40.5167 0001726  78.5739 281.5455 15.30186718337568
STARLINK-1080,44961,53.0547,0.0009027,15.44261452,427.4001051288715,439.6979230587167,1 44961U 20001AZ  26051.28660980  .00066697  00000+0  14226-2 0  9990,2 44961  53.0547  11.1458 0009027  55.1061 305.0791 15.44261452337985
STARLINK-1090,44968,53.0554,0.0001196,15.0641503,546.3372273577706,547.9937597142252,1 44968U 20001BG  26051.44368105  .00004291  00000+0  30667-3 0  9999,2 44968  53.0554  24.0402 0001196  83.1446 276.9679 15.06415030337813
STARLINK-1132,45044,53.1592,0.0005514,15.41338903,438.39605860745087,445.91747857545397,1 45044U 20006A   26051.22846179  .00043070  00000+0  10207-2 0  9993,2 45044  53.1592 336.5986 0005514 121.1718 238.9829 15.41338903334233
STARLINK-1131,45047,53.1588,0.0001122,15.30203951,474.4343276923082,475.9722172494512,1 45047U 20006D   26051.29226608  .00012792  00000+0  44322-3 0  9995,2 45047  53.1588   1.7912 0001122  75.0885 285.0240 15.30203951333886
STARLINK-1134,45048,53.0372,0.0010338,15.41997362,433.1662307099723,447.2638553941879,1 45048U 20006E   26051.06911802  .00026164  00000+0  61093-3 0  9990,2 45048  53.0372 321.9624 0010338 112.6037 247.6062 15.41997362334425
STARLINK-1156,45054,53.1575,0.0001447,15.29353662,476.7512015557704,478.7352932993763,1 45054U 20006L   26051.25241493  .00000858  00000+0  42075-4 0  9992,2 45054  53.1575   1.9809 0001447 127.5579 232.5552 15.29353662333875
STARLINK-1159,45057,53.0483,0.0006583,15.77248941,333.81777348511696,342.66055434252576,1 45057U 20006P   26051.91668981  .00019613  00000+0  12065-3 0  9997,2 45057  53.0483 318.8619 0006583  89.0930 225.7013 15.77248941  5961
STARLINK-1166,45060,53.055,0.0006247,15.43349864,431.9740540538005,440.4879254201778,1 45060U 20006S   26051.81307883  .00032585  00000+0  72517-3 0  9992,2 45060  53.0550 352.9475 0006247  86.4278 273.7441 15.43349864334054
STARLINK-1169,45061,53.1598,0.0001541,15.30201168,474.15548096759176,476.2676830005594,1 45061U 20006T   26051.28592906  .00002401  00000+0  93179-4 0  9998,2 45061  53.1598   1.8339 0001541  90.5009 269.6168 15.30201168333887
STARLINK-1171,45062,53.0481,0.0002365,15.54057178,403.2904950770817,406.4988690627006,1 45062U 20006U   26051.04947920  .00086726  00000+0  13080-2 0  9996,2 45062  53.0481 334.9003 0002365 340.5012  19.5907 15.54057178334243
STARLINK-1133,45064,53.1606,0.0001438,15.30177262,474.29744003896667,476.26848361998964,1 45064U 20006W   26051.09578071  .00000323  00000+0  23061-4 0  9991,2 45064  53.1606 339.5256 0001438  87.6034 272.5131 15.30177262334183
STARLINK-1167,45071,53.16,0.0001281,15.29351528,476.8713859755708,478.6278641289091,1 45071U 20006AD  26051.17942688  .00002119  00000+0  85759-4 0  9994,2 45071  53.1600 339.0814 0001281 102.5312 257.5832 15.29351528334191
STARLINK-1168,45072,53.1598,0.0002014,15.29364427,476.33030781305297,479.09184341791024,1 45072U 20006AE  26051.05852080  .00000102  00000+0  15893-4 0  9990,2 45072  53.1598 339.7001 0002014 136.1554 223.9607 15.29364427334176
STARLINK-1172,45074,53.16,9.88e-05,15.30194689,474.5538144026732,475.908039905079,1 45074U 20006AG  26051.20322903  .00000654  00000+0  34219-4 0  9990,2 45074  53.1600 339.0472 0000988  73.2975 286.8135 15.30194689334192
STARLINK-1153,45080,53.1598,0.000122,15.29346424,476.92845878342087,478.6012988418497,1 45080U 20006AN  26051.09849340 -.00000225  00000+0  45372-5 0  9991,2 45080  53.1598 339.3754 0001220  97.9534 262.1605 15.29346424334187
STARLINK-1151,45081,53.0522,0.001207,15.55984848,391.11095192488847,407.47166386014123,1 45081U 20006AP  26051.02310241  .00045853  00000+0  64911-3 0  9991,2 45081  53.0522 325.9026 0012070  88.7405 271.4989 15.55984848334362
STARLINK-1185,45087,53.1609,0.0001689,15.29294607,476.7617553698874,479.077731337793,1 45087U 20006AV  26051.91668981  .00073414  00000+0  25361-2 0  9991,2 45087  53.1609 320.2557 0001689  90.2281 243.4794 15.29294607  5733
STARLINK-1183,45088,53.1545,0.0001518,15.29326802,476.7827868971235,478.8642565115133,1 45088U 20006AW  26051.91668981  .00029362  00000+0  10267-2 0  9994,2 45088  53.1545 320.4774 0001518 101.1693 350.8826 15.29326802  5783
STARLINK-1152,45096,53.0418,0.0006713,15.36116895,453.0161863519006,462.1938535879126,1 45096U 20006BE  26051.04385405  .00057877  00000+0  16188-2 0  9994,2 45096  53.0418 289.5603 0006713 122.6423 237.5228 15.36116895334876
STARLINK-1184,45098,53.0551,0.0006213,15.09624002,533.0514548013143,541.6446365190523,1 45098U 20006BG  26051.19122054  .00009229  00000+0  58449-3 0  9996,2 45098  53.0551 324.4007 0006213  89.1651 271.0052 15.09624002334397
STARLINK-1193,45100,53.0535,0.0005079,15.49106302,415.88673850336,422.7916148036038,1 45100U 20006BJ  26051.13747777  .00080010  00000+0  14415-2 0  9990,2 45100  53.0535 314.9344 0005079 138.3748 221.7647 15.49106302334523
